#aV2013  7 13  0  0  0.00000000     288 DD+AD WGS84 FIT  NGA
## 1748 518400.00000000   300.00000000 56486 0.0000000000000
+   31     1  2  3  4  5  6  7  8  9 10 11 12 13 14 15 16 17
+         18 19 20 21 22 23 24 25 26 27 28 29 31 32  0  0  0
+          0  0  0  0  0  0  0  0  0  0  0  0  0  0  0  0  0
+          0  0  0  0  0  0  0  0  0  0  0  0  0  0  0  0  0
+          0  0  0  0  0  0  0  0  0  0  0  0  0  0  0  0  0
++         2  2  2  2  2  2  2  2  2  2  2  2  2  2  2  2  2
++         2  2  2  2  2  2  2  2  2  2  2  2  2  2  2  0  0
++         0  0  0  0  0  0  0  0  0  0  0  0  0  0  0  0  0
++         0  0  0  0  0  0  0  0  0  0  0  0  0  0  0  0  0
++         0  0  0  0  0  0  0  0  0  0  0  0  0  0  0  0  0
%c cc cc ccc ccc cccc cccc cccc cccc ccccc ccccc ccccc ccccc
%c cc cc ccc ccc cccc cccc cccc cccc ccccc ccccc ccccc ccccc
%f  0.0000000  0.000000000  0.00000000000  0.000000000000000
%f  0.0000000  0.000000000  0.00000000000  0.000000000000000
%i    0    0    0    0      0      0      0      0         0
%i    0    0    0    0      0      0      0      0         0
/*      NGA, ST. LOUIS,MO.                                  
/*   EPHEMERIS COMPUTED FROM  1 DAYS OF DATA
/*   EPOCHA SMOOTHER  
/* CCCCCCCCCCCCCCCCCCCCCCCCCCCCCCCCCCCCCCCCCCCCCCCCCCCCCCCCC
*  2013  7 13  3  5  0.00000000                                                 
P  1  12822.712095  13450.952978 -19031.437492     49.246319                    
V  1 -24107.654910   1070.589233 -15405.883197      0.049981                    
P  2  12613.318294 -13919.079085  18801.327056    441.466621                    
V  2  23693.815662   1638.454105 -15362.714653      0.017818                    
P  3  -7514.110356  25178.650593  -3511.671519    231.966882                    
V  3  -4907.559513   2174.129541  30891.077723      0.049128                    
P  4  23089.760666  -7717.315905  10653.131769    270.759752                    
V  4  13885.945001   2997.321293 -26925.660112      0.102549                    
P  5   2491.516876 -20219.732070  16939.348153   -398.502251                    
V  5  12517.697044  17788.641336  19506.442531     -0.005179                    
P  6 -13404.805497  22567.404318   2431.506774    145.212442                    
V  6  -1945.118627  -4397.112901  31370.342907     -0.177617                    
P  7  24720.219643   6199.740688   8075.626524    235.438658                    
V  7 -10142.943912   1640.642540  29655.012410      0.042011                    
P  8  26698.029527   1457.104821  -2781.836889      7.346351                    
V  8   3439.446550   1544.053766  31902.149077      0.002325                    
P  9  25169.502152  -4906.849901  -7624.240012    254.114023                    
V  9   8885.060074   1844.363962  30255.534842      0.026107                    
P 10  14900.888583  -4794.415531  21190.248835    -86.764157                    
V 10  13031.537957  24374.341465  -3186.006181     -0.013421                    
P 11   5646.415174  15998.696397 -20891.471416   -400.282373                    
V 11 -24774.840176   7406.536313   -775.715743     -0.034971                    
P 12 -10001.038827 -24451.566640  -3712.109144    144.483634                    
V 12   3792.716056   3230.509565 -31678.264965      0.020958                    
P 13  12716.664412   7488.205369  21952.785036    100.518885                    
V 13 -16608.469923  22710.013869   1728.499143     -0.037018                    
P 14 -19331.252106  11564.827599 -13744.422094    219.414953                    
V 14   8457.145748 -15830.386525 -24994.684449     -0.004442                    
P 15   -733.198804 -21670.222898 -15195.593506   -127.362873                    
V 15  11629.492709 -15747.498567  22195.092033     -0.017076                    
P 16  -3265.681123  19496.763270  17538.766452   -250.264407                    
V 16 -11307.298078 -19395.759754  19750.256825      0.004907                    
P 17  19026.024992 -10694.729969 -14749.295026     -0.385434                    
V 17  -8586.477800  17308.402721 -23508.278596     -0.038719                    
P 18 -18985.548113 -11164.348853 -14666.108511    263.354548                    
V 18  -7180.047591 -18128.951225  22107.799232      0.019436                    
P 19  -5145.018590  22471.008097 -12904.087751   -388.357171                    
V 19 -11596.119296  11837.025986  25855.965752     -0.029371                    
P 20  14865.323306  22034.491869    869.252317    109.030954                    
V 20  -2502.425342   3152.868378 -30925.416910      0.022853                    
P 21 -26116.133515  -4074.288258   5215.705037   -308.057339                    
V 21   5867.242305  -3072.352762  29850.986474     -0.019741                    
P 22 -16729.542069   1642.790201 -20388.010362    175.372927                    
V 22 -12141.771343 -23531.038453   7841.366087      0.013578                    
P 23   6633.410129  16220.220620  19917.520477     67.485282                    
V 23 -14261.437968  20890.982394 -12711.750854     -0.035542                    
P 24  -8744.339032 -14417.609908 -20542.915055     -9.880933                    
V 24  26053.939772   -923.360085 -10406.295407     -0.007614                    
P 25 -17273.635080 -18263.306526   8671.941197    121.445119                    
V 25  -3616.910022 -10662.553559 -29363.363966      0.050803                    
P 26  12265.666023 -22911.301388  -5188.470393     94.291182                    
V 26   5339.429077  -3325.387874  31463.390491      0.166559                    
P 27 -12095.307061  23549.902183  -2080.381196    -10.122882                    
V 27  -3764.073982    849.688842  31613.709495     -0.045641                    
P 28  16546.359371   3579.551425 -19932.511677    275.243452                    
V 28  10905.756169  24177.710392  12851.716457      0.032337                    
P 29 -11949.862956  -9292.540528  21870.751794    453.041081                    
V 29  15267.523551 -23041.276923  -1405.496473      0.031675                    
P 31 -22605.272321   7442.727303  12248.008598    320.529041                    
V 31 -15089.379645  -2100.907043 -26671.598231      0.010557                    
P 32   6685.075976  25228.391114  -6128.443852   -558.298907                    
V 32  -5675.053477  -6030.427809 -29869.288278      0.007296                    
EOF
